COSMOS 2242             
1 22626U 93024A   26070.97608433  .00001752  00000+0  15147-3 0  9996
2 22626  82.5156 264.5290 0015060 300.5402  59.4333 14.96558713780732
SL-16 R/B               
1 22803U 93059B   26070.94724703 -.00000094  00000+0 -22783-4 0  9992
2 22803  70.9928   6.3653 0018425 213.2878 146.7088 14.17231359679851
ARIANE 40 R/B           
1 22830U 93061H   26070.93314881  .00000219  00000+0  95920-4 0  9996
2 22830  98.4911 139.7764 0009568 277.6754  82.3343 14.32862225694425
COSMOS 2278             
1 23087U 94023A   26070.71941900  .00000032  00000+0  41154-4 0  9997
2 23087  71.0553 170.8514 0008181   9.1686 350.9585 14.14379421645092
SL-16 R/B               
1 23088U 94023B   26070.41151177 -.00000234  00000+0 -96041-4 0  9995
2 23088  70.9985  67.2706 0005702 284.1137  75.9352 14.15011232646332
SL-16 R/B               
1 23343U 94074B   26070.95830685  .00000523  00000+0  76776-4 0  9994
2 23343  97.7107 101.6841 0005967 202.0656 221.9820 14.79410659687581
SL-16 R/B               
1 23405U 94077B   26070.95778830  .00000083  00000+0  67022-4 0  9994
2 23405  70.9853 347.7180 0002975 209.1451 150.9507 14.15561542616557
ARIANE 40+ R/B          
1 23561U 95021B   26070.84266054  .00000316  00000+0  11476-3 0  9995
2 23561  98.4492 142.2959 0007707 130.7994 344.5912 14.39774100619551
SL-16 R/B               
1 23705U 95058B   26070.61155650  .00000333  00000+0  19437-3 0  9993
2 23705  71.0223 176.2205 0010702 122.2935 237.9226 14.15496639568122
SL-16 R/B               
1 24298U 96051B   26070.72406866  .00000087  00000+0  73872-4 0  9995
2 24298  70.7603 170.9329 0014909 144.9408 215.2696 14.12416227521935
ORBVIEW 2 (SEASTAR)     
1 24883U 97037A   26070.92716406  .00000337  00000+0  13339-3 0  9995
2 24883  98.8572 235.2983 0003045  67.4302 292.7204 14.35496689508792
SL-16 R/B               
1 25400U 98043G   26070.83649823  .00000079  00000+0  51875-4 0  9998
2 25400  98.8255  24.2151 0010108  14.4580 345.6887 14.26050331439290
