CCSDS_OMM_VERS = 2.0
CREATION_DATE  = 
ORIGINATOR     = 

OBJECT_NAME    = COSMOS 2242
OBJECT_ID      = 1993-024A
CENTER_NAME    = EARTH
REF_FRAME      = TEME
TIME_SYSTEM    = UTC
MEAN_ELEMENT_THEORY = SGP/SGP4

EPOCH          = 2026-03-11T23:25:33.686112
MEAN_MOTION    = 14.96558713
ECCENTRICITY   = .00150603
INCLINATION    = 82.5156
RA_OF_ASC_NODE = 264.5290
ARG_OF_PERICENTER = 300.5402
MEAN_ANOMALY   = 59.4333

EPHEMERIS_TYPE = 0
CLASSIFICATION_TYPE = U
NORAD_CAT_ID   = 22626
ELEMENT_SET_NO = 999
REV_AT_EPOCH   = 78073
BSTAR          = .15147474E-3
MEAN_MOTION_DOT = .1752E-4
MEAN_MOTION_DDOT = 0

CCSDS_OMM_VERS = 2.0
CREATION_DATE  = 
ORIGINATOR     = 

OBJECT_NAME    = SL-16 R/B
OBJECT_ID      = 1993-059B
CENTER_NAME    = EARTH
REF_FRAME      = TEME
TIME_SYSTEM    = UTC
MEAN_ELEMENT_THEORY = SGP/SGP4

EPOCH          = 2026-03-11T22:44:02.143392
MEAN_MOTION    = 14.17231359
ECCENTRICITY   = .00184259
INCLINATION    = 70.9928
RA_OF_ASC_NODE = 6.3653
ARG_OF_PERICENTER = 213.2878
MEAN_ANOMALY   = 146.7088

EPHEMERIS_TYPE = 0
CLASSIFICATION_TYPE = U
NORAD_CAT_ID   = 22803
ELEMENT_SET_NO = 999
REV_AT_EPOCH   = 67985
BSTAR          = -.22783036E-4
MEAN_MOTION_DOT = -.94E-6
MEAN_MOTION_DDOT = 0

CCSDS_OMM_VERS = 2.0
CREATION_DATE  = 
ORIGINATOR     = 

OBJECT_NAME    = ARIANE 40 R/B
OBJECT_ID      = 1993-061H
CENTER_NAME    = EARTH
REF_FRAME      = TEME
TIME_SYSTEM    = UTC
MEAN_ELEMENT_THEORY = SGP/SGP4

EPOCH          = 2026-03-11T22:23:44.057184
MEAN_MOTION    = 14.32862225
ECCENTRICITY   = .00095685
INCLINATION    = 98.4911
RA_OF_ASC_NODE = 139.7764
ARG_OF_PERICENTER = 277.6754
MEAN_ANOMALY   = 82.3343

EPHEMERIS_TYPE = 0
CLASSIFICATION_TYPE = U
NORAD_CAT_ID   = 22830
ELEMENT_SET_NO = 999
REV_AT_EPOCH   = 69442
BSTAR          = .95920087E-4
MEAN_MOTION_DOT = .219E-5
MEAN_MOTION_DDOT = 0

CCSDS_OMM_VERS = 2.0
CREATION_DATE  = 
ORIGINATOR     = 

OBJECT_NAME    = COSMOS 2278
OBJECT_ID      = 1994-023A
CENTER_NAME    = EARTH
REF_FRAME      = TEME
TIME_SYSTEM    = UTC
MEAN_ELEMENT_THEORY = SGP/SGP4

EPOCH          = 2026-03-11T17:15:57.801600
MEAN_MOTION    = 14.14379421
ECCENTRICITY   = .00081814
INCLINATION    = 71.0553
RA_OF_ASC_NODE = 170.8514
ARG_OF_PERICENTER = 9.1686
MEAN_ANOMALY   = 350.9585

EPHEMERIS_TYPE = 0
CLASSIFICATION_TYPE = U
NORAD_CAT_ID   = 23087
ELEMENT_SET_NO = 999
REV_AT_EPOCH   = 64509
BSTAR          = .4115368E-4
MEAN_MOTION_DOT = .32E-6
MEAN_MOTION_DDOT = 0

CCSDS_OMM_VERS = 2.0
CREATION_DATE  = 
ORIGINATOR     = 

OBJECT_NAME    = SL-16 R/B
OBJECT_ID      = 1994-023B
CENTER_NAME    = EARTH
REF_FRAME      = TEME
TIME_SYSTEM    = UTC
MEAN_ELEMENT_THEORY = SGP/SGP4

EPOCH          = 2026-03-11T09:52:34.616928
MEAN_MOTION    = 14.15011232
ECCENTRICITY   = .00057027
INCLINATION    = 70.9985
RA_OF_ASC_NODE = 67.2706
ARG_OF_PERICENTER = 284.1137
MEAN_ANOMALY   = 75.9352

EPHEMERIS_TYPE = 0
CLASSIFICATION_TYPE = U
NORAD_CAT_ID   = 23088
ELEMENT_SET_NO = 999
REV_AT_EPOCH   = 64633
BSTAR          = -.96040704E-4
MEAN_MOTION_DOT = -.234E-5
MEAN_MOTION_DDOT = 0

CCSDS_OMM_VERS = 2.0
CREATION_DATE  = 
ORIGINATOR     = 

OBJECT_NAME    = SL-16 R/B
OBJECT_ID      = 1994-074B
CENTER_NAME    = EARTH
REF_FRAME      = TEME
TIME_SYSTEM    = UTC
MEAN_ELEMENT_THEORY = SGP/SGP4

EPOCH          = 2026-03-11T22:59:57.711840
MEAN_MOTION    = 14.79410659
ECCENTRICITY   = .00059671
INCLINATION    = 97.7107
RA_OF_ASC_NODE = 101.6841
ARG_OF_PERICENTER = 202.0656
MEAN_ANOMALY   = 221.9820

EPHEMERIS_TYPE = 0
CLASSIFICATION_TYPE = U
NORAD_CAT_ID   = 23343
ELEMENT_SET_NO = 999
REV_AT_EPOCH   = 68758
BSTAR          = .76776373E-4
MEAN_MOTION_DOT = .523E-5
MEAN_MOTION_DDOT = 0

CCSDS_OMM_VERS = 2.0
CREATION_DATE  = 
ORIGINATOR     = 

OBJECT_NAME    = SL-16 R/B
OBJECT_ID      = 1994-077B
CENTER_NAME    = EARTH
REF_FRAME      = TEME
TIME_SYSTEM    = UTC
MEAN_ELEMENT_THEORY = SGP/SGP4

EPOCH          = 2026-03-11T22:59:12.909120
MEAN_MOTION    = 14.15561542
ECCENTRICITY   = .00029755
INCLINATION    = 70.9853
RA_OF_ASC_NODE = 347.7180
ARG_OF_PERICENTER = 209.1451
MEAN_ANOMALY   = 150.9507

EPHEMERIS_TYPE = 0
CLASSIFICATION_TYPE = U
NORAD_CAT_ID   = 23405
ELEMENT_SET_NO = 999
REV_AT_EPOCH   = 61655
BSTAR          = .67022223E-4
MEAN_MOTION_DOT = .83E-6
MEAN_MOTION_DDOT = 0

CCSDS_OMM_VERS = 2.0
CREATION_DATE  = 
ORIGINATOR     = 

OBJECT_NAME    = ARIANE 40+ R/B
OBJECT_ID      = 1995-021B
CENTER_NAME    = EARTH
REF_FRAME      = TEME
TIME_SYSTEM    = UTC
MEAN_ELEMENT_THEORY = SGP/SGP4

EPOCH          = 2026-03-11T20:13:25.870656
MEAN_MOTION    = 14.39774100
ECCENTRICITY   = .00077071
INCLINATION    = 98.4492
RA_OF_ASC_NODE = 142.2959
ARG_OF_PERICENTER = 130.7994
MEAN_ANOMALY   = 344.5912

EPHEMERIS_TYPE = 0
CLASSIFICATION_TYPE = U
NORAD_CAT_ID   = 23561
ELEMENT_SET_NO = 999
REV_AT_EPOCH   = 61955
BSTAR          = .11475783E-3
MEAN_MOTION_DOT = .316E-5
MEAN_MOTION_DDOT = 0

CCSDS_OMM_VERS = 2.0
CREATION_DATE  = 
ORIGINATOR     = 

OBJECT_NAME    = SL-16 R/B
OBJECT_ID      = 1995-058B
CENTER_NAME    = EARTH
REF_FRAME      = TEME
TIME_SYSTEM    = UTC
MEAN_ELEMENT_THEORY = SGP/SGP4

EPOCH          = 2026-03-11T14:40:38.481600
MEAN_MOTION    = 14.15496639
ECCENTRICITY   = .00107028
INCLINATION    = 71.0223
RA_OF_ASC_NODE = 176.2205
ARG_OF_PERICENTER = 122.2935
MEAN_ANOMALY   = 237.9226

EPHEMERIS_TYPE = 0
CLASSIFICATION_TYPE = U
NORAD_CAT_ID   = 23705
ELEMENT_SET_NO = 999
REV_AT_EPOCH   = 56812
BSTAR          = .19436613E-3
MEAN_MOTION_DOT = .333E-5
MEAN_MOTION_DDOT = 0

CCSDS_OMM_VERS = 2.0
CREATION_DATE  = 
ORIGINATOR     = 

OBJECT_NAME    = SL-16 R/B
OBJECT_ID      = 1996-051B
CENTER_NAME    = EARTH
REF_FRAME      = TEME
TIME_SYSTEM    = UTC
MEAN_ELEMENT_THEORY = SGP/SGP4

EPOCH          = 2026-03-11T17:22:39.532224
MEAN_MOTION    = 14.12416227
ECCENTRICITY   = .00149098
INCLINATION    = 70.7603
RA_OF_ASC_NODE = 170.9329
ARG_OF_PERICENTER = 144.9408
MEAN_ANOMALY   = 215.2696

EPHEMERIS_TYPE = 0
CLASSIFICATION_TYPE = U
NORAD_CAT_ID   = 24298
ELEMENT_SET_NO = 999
REV_AT_EPOCH   = 52193
BSTAR          = .73871769E-4
MEAN_MOTION_DOT = .87E-6
MEAN_MOTION_DDOT = 0

CCSDS_OMM_VERS = 2.0
CREATION_DATE  = 
ORIGINATOR     = 

OBJECT_NAME    = ORBVIEW 2 (SEASTAR)
OBJECT_ID      = 1997-037A
CENTER_NAME    = EARTH
REF_FRAME      = TEME
TIME_SYSTEM    = UTC
MEAN_ELEMENT_THEORY = SGP/SGP4

EPOCH          = 2026-03-11T22:15:06.974784
MEAN_MOTION    = 14.35496689
ECCENTRICITY   = .00030454
INCLINATION    = 98.8572
RA_OF_ASC_NODE = 235.2983
ARG_OF_PERICENTER = 67.4302
MEAN_ANOMALY   = 292.7204

EPHEMERIS_TYPE = 0
CLASSIFICATION_TYPE = U
NORAD_CAT_ID   = 24883
ELEMENT_SET_NO = 999
REV_AT_EPOCH   = 50879
BSTAR          = .13339404E-3
MEAN_MOTION_DOT = .337E-5
MEAN_MOTION_DDOT = 0

CCSDS_OMM_VERS = 2.0
CREATION_DATE  = 
ORIGINATOR     = 

OBJECT_NAME    = SL-16 R/B
OBJECT_ID      = 1998-043G
CENTER_NAME    = EARTH
REF_FRAME      = TEME
TIME_SYSTEM    = UTC
MEAN_ELEMENT_THEORY = SGP/SGP4

EPOCH          = 2026-03-11T20:04:33.447072
MEAN_MOTION    = 14.26050331
ECCENTRICITY   = .00101087
INCLINATION    = 98.8255
RA_OF_ASC_NODE = 24.2151
ARG_OF_PERICENTER = 14.4580
MEAN_ANOMALY   = 345.6887

EPHEMERIS_TYPE = 0
CLASSIFICATION_TYPE = U
NORAD_CAT_ID   = 25400
ELEMENT_SET_NO = 999
REV_AT_EPOCH   = 43929
BSTAR          = .51875249E-4
MEAN_MOTION_DOT = .79E-6
MEAN_MOTION_DDOT = 0

